[{"OBJECT_NAME":"SWOT","OBJECT_ID":"2022-173A","EPOCH":"2026-03-09T21:08:58.320384","MEAN_MOTION":14.00169571,"ECCENTRICITY":5.296e-5,"INCLINATION":77.6121,"RA_OF_ASC_NODE":169.3626,"ARG_OF_PERICENTER":257.165,"MEAN_ANOMALY":102.9443,"EPHEMERIS_TYPE":0,"CLASSIFICATION_TYPE":"U","NORAD_CAT_ID":54754,"ELEMENT_SET_NO":999,"REV_AT_EPOCH":16525,"BSTAR":8.9304891e-5,"MEAN_MOTION_DOT":1.29e-6,"MEAN_MOTION_DDOT":0},{"OBJECT_NAME":"METEOR 2-17 DEB","OBJECT_ID":"1988-005Z","EPOCH":"2026-03-04T12:09:38.253600","MEAN_MOTION":14.00836451,"ECCENTRICITY":0.00014507,"INCLINATION":82.5041,"RA_OF_ASC_NODE":342.8213,"ARG_OF_PERICENTER":85.4105,"MEAN_ANOMALY":38.9106,"EPHEMERIS_TYPE":0,"CLASSIFICATION_TYPE":"U","NORAD_CAT_ID":35365,"ELEMENT_SET_NO":999,"REV_AT_EPOCH":60544,"BSTAR":0.001309968,"MEAN_MOTION_DOT":1.97e-5,"MEAN_MOTION_DDOT":0}]
